CCSDS_OMM_VERS = 2.0
CREATION_DATE  = 
ORIGINATOR     = 

OBJECT_NAME    = SL-16 R/B
OBJECT_ID      = 1992-093B
CENTER_NAME    = EARTH
REF_FRAME      = TEME
TIME_SYSTEM    = UTC
MEAN_ELEMENT_THEORY = SGP/SGP4

EPOCH          = 2025-11-19T16:55:36.261984
MEAN_MOTION    = 14.15428058
ECCENTRICITY   = .00022863
INCLINATION    = 71.0218
RA_OF_ASC_NODE = 235.1470
ARG_OF_PERICENTER = 140.4067
MEAN_ANOMALY   = 219.7223

EPHEMERIS_TYPE = 0
CLASSIFICATION_TYPE = U
NORAD_CAT_ID   = 22285
ELEMENT_SET_NO = 999
REV_AT_EPOCH   = 69759
BSTAR          = .37280378E-4
MEAN_MOTION_DOT = .25E-6
MEAN_MOTION_DDOT = 0

CCSDS_OMM_VERS = 2.0
CREATION_DATE  = 
ORIGINATOR     = 

OBJECT_NAME    = COSMOS 2228
OBJECT_ID      = 1992-094A
CENTER_NAME    = EARTH
REF_FRAME      = TEME
TIME_SYSTEM    = UTC
MEAN_ELEMENT_THEORY = SGP/SGP4

EPOCH          = 2025-11-19T21:24:14.150880
MEAN_MOTION    = 14.96581008
ECCENTRICITY   = .00167888
INCLINATION    = 82.5177
RA_OF_ASC_NODE = 342.3962
ARG_OF_PERICENTER = 315.4526
MEAN_ANOMALY   = 44.5345

EPHEMERIS_TYPE = 0
CLASSIFICATION_TYPE = U
NORAD_CAT_ID   = 22286
ELEMENT_SET_NO = 999
REV_AT_EPOCH   = 75963
BSTAR          = .17968902E-3
MEAN_MOTION_DOT = .2076E-4
MEAN_MOTION_DDOT = 0

CCSDS_OMM_VERS = 2.0
CREATION_DATE  = 
ORIGINATOR     = 

OBJECT_NAME    = SL-16 R/B
OBJECT_ID      = 1993-016B
CENTER_NAME    = EARTH
REF_FRAME      = TEME
TIME_SYSTEM    = UTC
MEAN_ELEMENT_THEORY = SGP/SGP4

EPOCH          = 2025-11-19T17:38:03.797088
MEAN_MOTION    = 14.15285870
ECCENTRICITY   = .00086892
INCLINATION    = 71.0073
RA_OF_ASC_NODE = 86.1175
ARG_OF_PERICENTER = 140.1887
MEAN_ANOMALY   = 219.9875

EPHEMERIS_TYPE = 0
CLASSIFICATION_TYPE = U
NORAD_CAT_ID   = 22566
ELEMENT_SET_NO = 999
REV_AT_EPOCH   = 68661
BSTAR          = .18768363E-3
MEAN_MOTION_DOT = .318E-5
MEAN_MOTION_DDOT = 0

CCSDS_OMM_VERS = 2.0
CREATION_DATE  = 
ORIGINATOR     = 

OBJECT_NAME    = COSMOS 2242
OBJECT_ID      = 1993-024A
CENTER_NAME    = EARTH
REF_FRAME      = TEME
TIME_SYSTEM    = UTC
MEAN_ELEMENT_THEORY = SGP/SGP4

EPOCH          = 2025-11-19T21:28:33.433824
MEAN_MOTION    = 14.95975523
ECCENTRICITY   = .00152606
INCLINATION    = 82.5208
RA_OF_ASC_NODE = 11.6777
ARG_OF_PERICENTER = 318.5333
MEAN_ANOMALY   = 41.4730

EPHEMERIS_TYPE = 0
CLASSIFICATION_TYPE = U
NORAD_CAT_ID   = 22626
ELEMENT_SET_NO = 999
REV_AT_EPOCH   = 76397
BSTAR          = .18686984E-3
MEAN_MOTION_DOT = .2124E-4
MEAN_MOTION_DDOT = 0

CCSDS_OMM_VERS = 2.0
CREATION_DATE  = 
ORIGINATOR     = 

OBJECT_NAME    = SL-16 R/B
OBJECT_ID      = 1993-059B
CENTER_NAME    = EARTH
REF_FRAME      = TEME
TIME_SYSTEM    = UTC
MEAN_ELEMENT_THEORY = SGP/SGP4

EPOCH          = 2025-11-19T19:01:48.178272
MEAN_MOTION    = 14.17208901
ECCENTRICITY   = .00166005
INCLINATION    = 70.9902
RA_OF_ASC_NODE = 242.8723
ARG_OF_PERICENTER = 9.6779
MEAN_ANOMALY   = 350.4661

EPHEMERIS_TYPE = 0
CLASSIFICATION_TYPE = U
NORAD_CAT_ID   = 22803
ELEMENT_SET_NO = 999
REV_AT_EPOCH   = 66396
BSTAR          = -.5525588E-5
MEAN_MOTION_DOT = -.59E-6
MEAN_MOTION_DDOT = 0

CCSDS_OMM_VERS = 2.0
CREATION_DATE  = 
ORIGINATOR     = 

OBJECT_NAME    = ARIANE 40 R/B
OBJECT_ID      = 1993-061H
CENTER_NAME    = EARTH
REF_FRAME      = TEME
TIME_SYSTEM    = UTC
MEAN_ELEMENT_THEORY = SGP/SGP4

EPOCH          = 2025-11-19T22:07:59.297376
MEAN_MOTION    = 14.32780605
ECCENTRICITY   = .0009745
INCLINATION    = 98.5105
RA_OF_ASC_NODE = 29.8646
ARG_OF_PERICENTER = 246.4094
MEAN_ANOMALY   = 113.6067

EPHEMERIS_TYPE = 0
CLASSIFICATION_TYPE = U
NORAD_CAT_ID   = 22830
ELEMENT_SET_NO = 999
REV_AT_EPOCH   = 67838
BSTAR          = .12065933E-3
MEAN_MOTION_DOT = .286E-5
MEAN_MOTION_DDOT = 0

CCSDS_OMM_VERS = 2.0
CREATION_DATE  = 
ORIGINATOR     = 

OBJECT_NAME    = COSMOS 2278
OBJECT_ID      = 1994-023A
CENTER_NAME    = EARTH
REF_FRAME      = TEME
TIME_SYSTEM    = UTC
MEAN_ELEMENT_THEORY = SGP/SGP4

EPOCH          = 2025-11-19T14:54:11.243808
MEAN_MOTION    = 14.14344781
ECCENTRICITY   = .0009667
INCLINATION    = 71.0554
RA_OF_ASC_NODE = 45.3768
ARG_OF_PERICENTER = 209.5917
MEAN_ANOMALY   = 150.4659

EPHEMERIS_TYPE = 0
CLASSIFICATION_TYPE = U
NORAD_CAT_ID   = 23087
ELEMENT_SET_NO = 999
REV_AT_EPOCH   = 62924
BSTAR          = .22433E-3
MEAN_MOTION_DOT = .382E-5
MEAN_MOTION_DDOT = 0

CCSDS_OMM_VERS = 2.0
CREATION_DATE  = 
ORIGINATOR     = 

OBJECT_NAME    = SL-16 R/B
OBJECT_ID      = 1994-023B
CENTER_NAME    = EARTH
REF_FRAME      = TEME
TIME_SYSTEM    = UTC
MEAN_ELEMENT_THEORY = SGP/SGP4

EPOCH          = 2025-11-19T22:18:53.436096
MEAN_MOTION    = 14.14991268
ECCENTRICITY   = .00011745
INCLINATION    = 70.9988
RA_OF_ASC_NODE = 301.3879
ARG_OF_PERICENTER = 137.7966
MEAN_ANOMALY   = 222.3248

EPHEMERIS_TYPE = 0
CLASSIFICATION_TYPE = U
NORAD_CAT_ID   = 23088
ELEMENT_SET_NO = 999
REV_AT_EPOCH   = 63056
BSTAR          = -.36159902E-4
MEAN_MOTION_DOT = -.118E-5
MEAN_MOTION_DDOT = 0

CCSDS_OMM_VERS = 2.0
CREATION_DATE  = 
ORIGINATOR     = 

OBJECT_NAME    = SL-16 R/B
OBJECT_ID      = 1994-074B
CENTER_NAME    = EARTH
REF_FRAME      = TEME
TIME_SYSTEM    = UTC
MEAN_ELEMENT_THEORY = SGP/SGP4

EPOCH          = 2025-11-19T13:24:08.326944
MEAN_MOTION    = 14.79251859
ECCENTRICITY   = .0005769
INCLINATION    = 97.7232
RA_OF_ASC_NODE = 353.7815
ARG_OF_PERICENTER = 208.9726
MEAN_ANOMALY   = 303.8936

EPHEMERIS_TYPE = 0
CLASSIFICATION_TYPE = U
NORAD_CAT_ID   = 23343
ELEMENT_SET_NO = 999
REV_AT_EPOCH   = 67096
BSTAR          = .8678E-4
MEAN_MOTION_DOT = .596E-5
MEAN_MOTION_DDOT = 0

CCSDS_OMM_VERS = 2.0
CREATION_DATE  = 
ORIGINATOR     = 

OBJECT_NAME    = SL-16 R/B
OBJECT_ID      = 1994-077B
CENTER_NAME    = EARTH
REF_FRAME      = TEME
TIME_SYSTEM    = UTC
MEAN_ELEMENT_THEORY = SGP/SGP4

EPOCH          = 2025-11-19T17:48:45.764640
MEAN_MOTION    = 14.15548127
ECCENTRICITY   = .00043755
INCLINATION    = 70.9828
RA_OF_ASC_NODE = 223.7927
ARG_OF_PERICENTER = 302.7827
MEAN_ANOMALY   = 57.2874

EPHEMERIS_TYPE = 0
CLASSIFICATION_TYPE = U
NORAD_CAT_ID   = 23405
ELEMENT_SET_NO = 999
REV_AT_EPOCH   = 60067
BSTAR          = .748457E-5
MEAN_MOTION_DOT = -.33E-6
MEAN_MOTION_DDOT = 0

CCSDS_OMM_VERS = 2.0
CREATION_DATE  = 
ORIGINATOR     = 

OBJECT_NAME    = ARIANE 40+ R/B
OBJECT_ID      = 1995-021B
CENTER_NAME    = EARTH
REF_FRAME      = TEME
TIME_SYSTEM    = UTC
MEAN_ELEMENT_THEORY = SGP/SGP4

EPOCH          = 2025-11-19T23:05:50.438112
MEAN_MOTION    = 14.39670228
ECCENTRICITY   = .00078773
INCLINATION    = 98.4680
RA_OF_ASC_NODE = 31.8236
ARG_OF_PERICENTER = 109.0604
MEAN_ANOMALY   = 64.9194

EPHEMERIS_TYPE = 0
CLASSIFICATION_TYPE = U
NORAD_CAT_ID   = 23561
ELEMENT_SET_NO = 999
REV_AT_EPOCH   = 60345
BSTAR          = .13022861E-3
MEAN_MOTION_DOT = .364E-5
MEAN_MOTION_DDOT = 0

CCSDS_OMM_VERS = 2.0
CREATION_DATE  = 
ORIGINATOR     = 

OBJECT_NAME    = SL-16 R/B
OBJECT_ID      = 1995-058B
CENTER_NAME    = EARTH
REF_FRAME      = TEME
TIME_SYSTEM    = UTC
MEAN_ELEMENT_THEORY = SGP/SGP4

EPOCH          = 2025-11-19T16:09:12.154176
MEAN_MOTION    = 14.15475609
ECCENTRICITY   = .00149886
INCLINATION    = 71.0227
RA_OF_ASC_NODE = 51.2314
ARG_OF_PERICENTER = 284.7545
MEAN_ANOMALY   = 75.1916

EPHEMERIS_TYPE = 0
CLASSIFICATION_TYPE = U
NORAD_CAT_ID   = 23705
ELEMENT_SET_NO = 999
REV_AT_EPOCH   = 55228
BSTAR          = -.8745431E-4
MEAN_MOTION_DOT = -.219E-5
MEAN_MOTION_DDOT = 0

