SL-16 R/B               
1 22285U 92093B   25323.70528081  .00000025  00000+0  37280-4 0  9998
2 22285  71.0218 235.1470 0002286 140.4067 219.7223 14.15428058697592
COSMOS 2228             
1 22286U 92094A   25323.89183045  .00002076  00000+0  17969-3 0  9996
2 22286  82.5177 342.3962 0016788 315.4526  44.5345 14.96581008759634
SL-16 R/B               
1 22566U 93016B   25323.73476617  .00000318  00000+0  18768-3 0  9990
2 22566  71.0073  86.1175 0008689 140.1887 219.9875 14.15285870686618
COSMOS 2242             
1 22626U 93024A   25323.89483141  .00002124  00000+0  18687-3 0  9990
2 22626  82.5208  11.6777 0015260 318.5333  41.4730 14.95975523763975
SL-16 R/B               
1 22803U 93059B   25323.79291873 -.00000059  00000+0 -55256-5 0  9995
2 22803  70.9902 242.8723 0016600   9.6779 350.4661 14.17208901663961
ARIANE 40 R/B           
1 22830U 93061H   25323.92221409  .00000286  00000+0  12066-3 0  9991
2 22830  98.5105  29.8646 0009745 246.4094 113.6067 14.32780605678386
COSMOS 2278             
1 23087U 94023A   25323.62096347  .00000382  00000+0  22433-3 0  9999
2 23087  71.0554  45.3768 0009667 209.5917 150.4659 14.14344781629248
SL-16 R/B               
1 23088U 94023B   25323.92978514 -.00000118  00000+0 -36160-4 0  9990
2 23088  70.9988 301.3879 0001174 137.7966 222.3248 14.14991268630565
SL-16 R/B               
1 23343U 94074B   25323.55842971  .00000596  00000+0  86780-4 0  9997
2 23343  97.7232 353.7815 0005769 208.9726 303.8936 14.79251859670961
SL-16 R/B               
1 23405U 94077B   25323.74219635 -.00000033  00000+0  74846-5 0  9993
2 23405  70.9828 223.7927 0004375 302.7827  57.2874 14.15548127600670
ARIANE 40+ R/B          
1 23561U 95021B   25323.96238933  .00000364  00000+0  13023-3 0  9996
2 23561  98.4680  31.8236 0007877 109.0604  64.9194 14.39670228603459
SL-16 R/B               
1 23705U 95058B   25323.67305734 -.00000219  00000+0 -87454-4 0  9999
2 23705  71.0227  51.2314 0014988 284.7545  75.1916 14.15475609552282
